{"type": "FeatureCollection", "features": [ {"type": "Feature", "properties": {"norad_id": 39122, "name": "EUTELSAT 117 WEST A", "group": "eutelsat", "lat": -0.004776127788197543, "lon": 168.12003173711642, "alt_km": 35786.69134373699, "timestamp": "2025-12-08T13:49:31.464674+00:00", "meta": {"OBJECT_NAME": "EUTELSAT 117 WEST A", "OBJECT_ID": "2013-012A", "EPOCH": "2025-12-08T05:51:36.789120", "MEAN_MOTION": 1.00270355, "ECCENTRICITY": 0.00031196, "INCLINATION": 0.013, "RA_OF_ASC_NODE": 339.7183, "ARG_OF_PERICENTER": 279.3607, "MEAN_ANOMALY": 149.2785, "EPHEMERIS_TYPE": 0, "CLASSIFICATION_TYPE": "U", "NORAD_CAT_ID": 39122, "ELEMENT_SET_NO": 999, "REV_AT_EPOCH": 4651, "BSTAR": 0, "MEAN_MOTION_DOT": -1e-07, "MEAN_MOTION_DDOT": 0}, "tle": {"line1": "1 39122U 13012A   25342.24417580 -.00000010  00000+0  00000+0 0  9991", "line2": "2 39122   0.0130 339.7183 0003119 279.3607 149.2785  1.00270355 46510"}}, "geometry": {"type": "Point", "coordinates": [168.12003173711642, -0.004776127788197543]}}, {"type": "Feature", "properties": {"norad_id": 39163, "name": "EUTELSAT 7B", "group": "eutelsat", "lat": -0.08601074885837053, "lon": -68.07573378270317, "alt_km": 35768.492967699574, "timestamp": "2025-12-08T13:49:31.464686+00:00", "meta": {"OBJECT_NAME": "EUTELSAT 7B", "OBJECT_ID": "2013-022A", "EPOCH": "2025-12-08T05:04:39.067392", "MEAN_MOTION": 1.00271135, "ECCENTRICITY": 0.00045284, "INCLINATION": 0.0699, "RA_OF_ASC_NODE": 11.6404, "ARG_OF_PERICENTER": 301.859, "MEAN_ANOMALY": 206.8716, "EPHEMERIS_TYPE": 0, "CLASSIFICATION_TYPE": "U", "NORAD_CAT_ID": 39163, "ELEMENT_SET_NO": 999, "REV_AT_EPOCH": 4604, "BSTAR": 0, "MEAN_MOTION_DOT": 5e-07, "MEAN_MOTION_DDOT": 0}, "tle": {"line1": "1 39163U 13022A   25342.21156328  .00000050  00000+0  00000+0 0  9997", "line2": "2 39163   0.0699  11.6404 0004528 301.8590 206.8716  1.00271135 46043"}}, "geometry": {"type": "Point", "coordinates": [-68.07573378270317, -0.08601074885837053]}}, {"type": "Feature", "properties": {"norad_id": 39612, "name": "EXPRESS-AT1", "group": "eutelsat", "lat": 0.00015986380554333418, "lon": -19.043532702225264, "alt_km": 35787.48644591467, "timestamp": "2025-12-08T13:49:31.464698+00:00", "meta": {"OBJECT_NAME": "EXPRESS-AT1", "OBJECT_ID": "2014-010A", "EPOCH": "2025-12-08T03:35:55.065696", "MEAN_MOTION": 1.00271876, "ECCENTRICITY": 3.625e-05, "INCLINATION": 0.0163, "RA_OF_ASC_NODE": 340.3658, "ARG_OF_PERICENTER": 195.6307, "MEAN_ANOMALY": 11.1418, "EPHEMERIS_TYPE": 0, "CLASSIFICATION_TYPE": "U", "NORAD_CAT_ID": 39612, "ELEMENT_SET_NO": 999, "REV_AT_EPOCH": 4290, "BSTAR": 0, "MEAN_MOTION_DOT": 0, "MEAN_MOTION_DDOT": 0}, "tle": {"line1": "1 39612U 14010A   25342.14994289  .00000000  00000+0  00000+0 0  9997", "line2": "2 39612   0.0163 340.3658 0000362 195.6307  11.1418  1.00271876 42907"}}, "geometry": {"type": "Point", "coordinates": [-19.043532702225264, 0.00015986380554333418]}}, {"type": "Feature", "properties": {"norad_id": 39613, "name": "EXPRESS-AT2", "group": "eutelsat", "lat": 0.033427362945892755, "lon": 64.82824725877866, "alt_km": 35791.17583240405, "timestamp": "2025-12-08T13:49:31.464711+00:00", "meta": {"OBJECT_NAME": "EXPRESS-AT2", "OBJECT_ID": "2014-010B", "EPOCH": "2025-12-08T07:25:12.778752", "MEAN_MOTION": 1.00272601, "ECCENTRICITY": 0.00015629, "INCLINATION": 0.0167, "RA_OF_ASC_NODE": 306.0443, "ARG_OF_PERICENTER": 335.6983, "MEAN_ANOMALY": 46.7381, "EPHEMERIS_TYPE": 0, "CLASSIFICATION_TYPE": "U", "NORAD_CAT_ID": 39613, "ELEMENT_SET_NO": 999, "REV_AT_EPOCH": 4258, "BSTAR": 0, "MEAN_MOTION_DOT": -2.78e-06, "MEAN_MOTION_DDOT": 0}, "tle": {"line1": "1 39613U 14010B   25342.30917568 -.00000278  00000+0  00000+0 0  9999", "line2": "2 39613   0.0167 306.0443 0001562 335.6983  46.7381  1.00272601 42586"}}, "geometry": {"type": "Point", "coordinates": [64.82824725877866, 0.033427362945892755]}}, {"type": "Feature", "properties": {"norad_id": 39773, "name": "EUTELSAT 3B", "group": "eutelsat", "lat": -0.08355487928240009, "lon": -71.89500066325579, "alt_km": 35774.83774307155, "timestamp": "2025-12-08T13:49:31.464723+00:00", "meta": {"OBJECT_NAME": "EUTELSAT 3B", "OBJECT_ID": "2014-030A", "EPOCH": "2025-12-08T01:37:58.861632", "MEAN_MOTION": 1.00272157, "ECCENTRICITY": 0.00046528, "INCLINATION": 0.0657, "RA_OF_ASC_NODE": 14.3376, "ARG_OF_PERICENTER": 217.9567, "MEAN_ANOMALY": 232.3839, "EPHEMERIS_TYPE": 0, "CLASSIFICATION_TYPE": "U", "NORAD_CAT_ID": 39773, "ELEMENT_SET_NO": 999, "REV_AT_EPOCH": 4215, "BSTAR": 0, "MEAN_MOTION_DOT": 2.3e-07, "MEAN_MOTION_DDOT": 0}, "tle": {"line1": "1 39773U 14030A   25342.06804238  .00000023  00000+0  00000+0 0  9997", "line2": "2 39773   0.0657  14.3376 0004652 217.9567 232.3839  1.00272157 42154"}}, "geometry": {"type": "Point", "coordinates": [-71.89500066325579, -0.08355487928240009]}}, {"type": "Feature", "properties": {"norad_id": 40425, "name": "EUTELSAT 115 WEST B", "group": "eutelsat", "lat": 0.0020519574611004804, "lon": 170.06257963636486, "alt_km": 35787.70268416432, "timestamp": "2025-12-08T13:49:31.464735+00:00", "meta": {"OBJECT_NAME": "EUTELSAT 115 WEST B", "OBJECT_ID": "2015-010B", "EPOCH": "2025-12-08T01:04:24.577824", "MEAN_MOTION": 1.00265397, "ECCENTRICITY": 1.304e-05, "INCLINATION": 0.0096, "RA_OF_ASC_NODE": 159.4384, "ARG_OF_PERICENTER": 297.017, "MEAN_ANOMALY": 241.8202, "EPHEMERIS_TYPE": 0, "CLASSIFICATION_TYPE": "U", "NORAD_CAT_ID": 40425, "ELEMENT_SET_NO": 999, "REV_AT_EPOCH": 3947, "BSTAR": 0, "MEAN_MOTION_DOT": -2.1e-07, "MEAN_MOTION_DDOT": 0}, "tle": {"line1": "1 40425U 15010B   25342.04472891 -.00000021  00000+0  00000+0 0  9995", "line2": "2 40425   0.0096 159.4384 0000130 297.0170 241.8202  1.00265397 39471"}}, "geometry": {"type": "Point", "coordinates": [170.06257963636486, 0.0020519574611004804]}}, {"type": "Feature", "properties": {"norad_id": 40875, "name": "EUTELSAT 8 WEST B", "group": "eutelsat", "lat": -0.08418015806012644, "lon": -83.0141504798505, "alt_km": 35769.54469851039, "timestamp": "2025-12-08T13:49:31.464747+00:00", "meta": {"OBJECT_NAME": "EUTELSAT 8 WEST B", "OBJECT_ID": "2015-039B", "EPOCH": "2025-12-08T06:42:59.648256", "MEAN_MOTION": 1.00271425, "ECCENTRICITY": 0.00041396, "INCLINATION": 0.0646, "RA_OF_ASC_NODE": 358.0552, "ARG_OF_PERICENTER": 260.6381, "MEAN_ANOMALY": 271.3584, "EPHEMERIS_TYPE": 0, "CLASSIFICATION_TYPE": "U", "NORAD_CAT_ID": 40875, "ELEMENT_SET_NO": 999, "REV_AT_EPOCH": 3774, "BSTAR": 0, "MEAN_MOTION_DOT": -6.3e-07, "MEAN_MOTION_DDOT": 0}, "tle": {"line1": "1 40875U 15039B   25342.27985704 -.00000063  00000+0  00000+0 0  9998", "line2": "2 40875   0.0646 358.0552 0004139 260.6381 271.3584  1.00271425 37746"}}, "geometry": {"type": "Point", "coordinates": [-83.0141504798505, -0.08418015806012644]}}, {"type": "Feature", "properties": {"norad_id": 41310, "name": "EUTELSAT 9B", "group": "eutelsat", "lat": -0.0629082291742977, "lon": -66.01038666217656, "alt_km": 35766.490221824766, "timestamp": "2025-12-08T13:49:31.464759+00:00", "meta": {"OBJECT_NAME": "EUTELSAT 9B", "OBJECT_ID": "2016-005A", "EPOCH": "2025-12-08T03:22:26.357376", "MEAN_MOTION": 1.00273093, "ECCENTRICITY": 0.00050117, "INCLINATION": 0.078, "RA_OF_ASC_NODE": 76.11, "ARG_OF_PERICENTER": 192.7395, "MEAN_ANOMALY": 227.9175, "EPHEMERIS_TYPE": 0, "CLASSIFICATION_TYPE": "U", "NORAD_CAT_ID": 41310, "ELEMENT_SET_NO": 999, "REV_AT_EPOCH": 3620, "BSTAR": 0, "MEAN_MOTION_DOT": 6.5e-07, "MEAN_MOTION_DDOT": 0}, "tle": {"line1": "1 41310U 16005A   25342.14058284  .00000065  00000+0  00000+0 0  9998", "line2": "2 41310   0.0780  76.1100 0005011 192.7395 227.9175  1.00273093 36203"}}, "geometry": {"type": "Point", "coordinates": [-66.01038666217656, -0.0629082291742977]}}, {"type": "Feature", "properties": {"norad_id": 41382, "name": "EUTELSAT 65 WEST A", "group": "eutelsat", "lat": -0.04863033034954438, "lon": -140.28998560181807, "alt_km": 35778.64869624604, "timestamp": "2025-12-08T13:49:31.464771+00:00", "meta": {"OBJECT_NAME": "EUTELSAT 65 WEST A", "OBJECT_ID": "2016-014A", "EPOCH": "2025-12-08T04:44:03.538752", "MEAN_MOTION": 1.0026917, "ECCENTRICITY": 0.00028626, "INCLINATION": 0.0492, "RA_OF_ASC_NODE": 0.7847, "ARG_OF_PERICENTER": 266.3312, "MEAN_ANOMALY": 175.887, "EPHEMERIS_TYPE": 0, "CLASSIFICATION_TYPE": "U", "NORAD_CAT_ID": 41382, "ELEMENT_SET_NO": 999, "REV_AT_EPOCH": 3562, "BSTAR": 0, "MEAN_MOTION_DOT": -2.73e-06, "MEAN_MOTION_DDOT": 0}, "tle": {"line1": "1 41382U 16014A   25342.19726318 -.00000273  00000+0  00000+0 0  9994", "line2": "2 41382   0.0492   0.7847 0002862 266.3312 175.8870  1.00269170 35620"}}, "geometry": {"type": "Point", "coordinates": [-140.28998560181807, -0.04863033034954438]}}, {"type": "Feature", "properties": {"norad_id": 41589, "name": "EUTELSAT 117 WEST B", "group": "eutelsat", "lat": 0.002826750331462703, "lon": 167.96208874759208, "alt_km": 35786.7408319711, "timestamp": "2025-12-08T13:49:31.464783+00:00", "meta": {"OBJECT_NAME": "EUTELSAT 117 WEST B", "OBJECT_ID": "2016-038B", "EPOCH": "2025-12-08T05:51:27.089856", "MEAN_MOTION": 1.00271014, "ECCENTRICITY": 3.727e-05, "INCLINATION": 0.0062, "RA_OF_ASC_NODE": 152.2728, "ARG_OF_PERICENTER": 268.7532, "MEAN_ANOMALY": 347.0922, "EPHEMERIS_TYPE": 0, "CLASSIFICATION_TYPE": "U", "NORAD_CAT_ID": 41589, "ELEMENT_SET_NO": 999, "REV_AT_EPOCH": 3474, "BSTAR": 0, "MEAN_MOTION_DOT": -9e-08, "MEAN_MOTION_DDOT": 0}, "tle": {"line1": "1 41589U 16038B   25342.24406354 -.00000009  00000+0  00000+0 0  9997", "line2": "2 41589   0.0062 152.2728 0000372 268.7532 347.0922  1.00271014 34740"}}, "geometry": {"type": "Point", "coordinates": [167.96208874759208, 0.002826750331462703]}}]}